GPS BIIR-2  (PRN 13)    
1 24876U 97035A   20113.10037543  .00000033  00000-0  00000-0 0  9997
2 24876  55.4537 186.3540 0039089  61.9902 298.4753  2.00565199166885
GPS BIIR-3  (PRN 11)    
1 25933U 99055A   20113.38886609 -.00000094  00000-0  00000-0 0  9999
2 25933  52.2845  32.4233 0157249 113.4667  37.7450  2.00558435150513
GPS BIIR-4  (PRN 20)    
1 26360U 00025A   20113.22131347  .00000037  00000-0  00000-0 0  9994
2 26360  53.4982 111.5110 0049525 154.0317 271.9843  2.00567215146201
GPS BIIR-5  (PRN 28)    
1 26407U 00040A   20113.42275472 -.00000035  00000-0  00000-0 0  9992
2 26407  56.0378 304.3790 0186685 279.2172 255.5650  2.00564823144883
GPS BIIR-6  (PRN 14)    
1 26605U 00071A   20112.29709127  .00000028  00000-0  00000-0 0  9990
2 26605  55.0294 183.7086 0115065 250.3064 106.9480  2.00568040142456
GPS BIIR-8  (PRN 16)    
1 27663U 03005A   20113.00881737 -.00000035  00000-0  00000-0 0  9992
2 27663  56.0946 304.1799 0113955  34.8575 326.1514  2.00555254126240
GPS BIIR-9  (PRN 21)    
1 27704U 03010A   20111.23990841 -.00000073  00000-0  00000-0 0  9996
2 27704  54.5870  55.3768 0249463 283.1558 210.7970  2.00581126125004
GPS BIIR-10 (PRN 22)    
1 28129U 03058A   20113.28961409  .00000041  00000-0  00000+0 0  9998
2 28129  53.3089 114.2340 0074238 291.6403  67.5954  2.00581156119720
GPS BIIR-11 (PRN 19)    
1 28190U 04009A   20113.53024517 -.00000085  00000-0  00000-0 0  9991
2 28190  56.2780   4.9507 0091332  91.5160  80.0572  2.00563149117927
GPS BIIR-12 (PRN 23)    
1 28361U 04023A   20113.43844288  .00000044  00000-0  00000+0 0  9994
2 28361  54.0581 177.7136 0143197 234.3754 125.8361  2.00389155116007
GPS BIIR-13 (PRN 02)    
1 28474U 04045A   20112.66109510 -.00000071  00000-0  00000+0 0  9990
2 28474  54.9350  55.1819 0200029 266.3180 275.6167  2.00563109113343
GPS BIIRM-1 (PRN 17)    
1 28874U 05038A   20112.51733035 -.00000087  00000-0  00000-0 0  9994
2 28874  56.3838   2.3727 0134784 266.0045 275.1098  2.00562797106754
GPS BIIRM-2 (PRN 31)    
1 29486U 06042A   20113.46937774 -.00000022  00000-0  00000-0 0  9990
2 29486  54.8809 240.6173 0094989   6.0046  60.7201  2.00576627 99361
GPS BIIRM-3 (PRN 12)    
1 29601U 06052A   20112.32383930 -.00000035  00000-0  00000-0 0  9997
2 29601  56.0808 303.1262 0078957  64.5102 296.3146  2.00559852 98327
GPS BIIRM-4 (PRN 15)    
1 32260U 07047A   20113.12620302  .00000046  00000-0  00000-0 0  9994
2 32260  53.1826 173.1232 0120389  49.3399 311.7869  2.00563694 91784
GPS BIIRM-5 (PRN 29)    
1 32384U 07062A   20113.22303088 -.00000084  00000-0  00000+0 0  9990
2 32384  56.4780   3.0152 0011330 111.5146  88.2577  2.00573244 90508
GPS BIIRM-6 (PRN 07)    
1 32711U 08012A   20113.54546222 -.00000021  00000-0  00000+0 0  9995
2 32711  54.6260 239.7309 0138228 222.9268 135.9608  2.00563301 88690
GPS BIIRM-8 (PRN 05)    
1 35752U 09043A   20112.15064666  .00000052  00000-0  00000-0 0  9995
2 35752  54.5653 117.3598 0056527  43.3806  62.0021  2.00567183 78250
GPS BIIF-1  (PRN 25)    
1 36585U 10022A   20113.10861521 -.00000035  00000-0  00000+0 0  9991
2 36585  55.3550 299.1710 0090793  52.0546 130.2275  2.00576901 72516
GPS BIIF-2  (PRN 01)    
1 37753U 11036A   20113.48449351 -.00000060  00000-0  00000+0 0  9997
2 37753  56.1388  59.4783 0095718  42.9049 136.9276  2.00569297 64208
GPS BIIF-3  (PRN 24)    
1 38833U 12053A   20112.72947047 -.00000029  00000-0  00000-0 0  9994
2 38833  53.6673 235.6650 0094853  37.1801 323.4458  2.00565208 54470
GPS BIIF-4  (PRN 27)    
1 39166U 13023A   20112.08791300 -.00000086  00000-0  00000+0 0  9992
2 39166  56.0498 359.0569 0080799  29.6609 330.8399  2.00565509 50788
GPS BIIF-5  (PRN 30)    
1 39533U 14008A   20112.59039076 -.00000033  00000-0  00000-0 0  9998
2 39533  53.7862 241.0996 0045602 196.7182 163.0993  2.00564907 44628
GPS BIIF-6  (PRN 06)    
1 39741U 14026A   20112.87234141 -.00000063  00000-0  00000+0 0  9992
2 39741  56.1138  59.0300 0021100 296.6706  63.0877  2.00550425 43446
GPS BIIF-7  (PRN 09)    
1 40105U 14045A   20112.95555825  .00000041  00000-0  00000-0 0  9999
2 40105  54.5844 178.2052 0013502 105.9626 254.2662  2.00554666 41047
GPS BIIF-8  (PRN 03)    
1 40294U 14068A   20113.32498399  .00000052  00000-0  00000-0 0  9999
2 40294  55.3165 119.1116 0026060  35.6230 324.5857  2.00575590 40145
GPS BIIF-9  (PRN 26)    
1 40534U 15013A   20110.97063734 -.00000035  00000-0  00000-0 0  9998
2 40534  54.2734 297.2743 0046976  10.2043 349.8929  2.00571842 36719
GPS BIIF-10 (PRN 08)    
1 40730U 15033A   20113.12243141 -.00000082  00000-0  00000-0 0  9992
2 40730  55.5675 358.2136 0053685 351.6737   8.2858  2.00566133 34943
GPS BIIF-11 (PRN 10)    
1 41019U 15062A   20113.17390783  .00000053  00000-0  00000+0 0  9991
2 41019  55.3138 118.9424 0056679 211.1994 148.4980  2.00564564 32765
GPS BIIF-12 (PRN 32)    
1 41328U 16007A   20113.26537816  .00000043  00000-0  00000+0 0  9993
2 41328  54.8214 178.6643 0040198 221.3034 138.4726  2.00559710 30829
GPS BIII-1  (PRN 04)    
1 43873U 18109A   20113.55514928  .00000043  00000-0  00000-0 0  9997
2 43873  55.0016 180.9108 0008372 223.6186 237.9277  2.00560973 10054
